QIANFAN-17              
1 60395U 24140S   25346.14135358  .00000131  00000+0  18475-3 0  9996
2 60395  88.9771 299.4959 0013757 201.5537 158.5036 13.50976805 68059
QIANFAN-18              
1 60396U 24140T   25346.12077279  .00000130  00000+0  18230-3 0  9990
2 60396  88.9764 299.0317 0013625 182.8505 177.2571 13.50976735 67442
QIANFAN-19              
1 61552U 24185A   25346.16030823  .00000715  00000+0  36727-3 0  9992
2 61552  88.9822  78.0080 0005170 317.8038  42.2751 14.14295241 69586
QIANFAN-20              
1 61553U 24185B   25346.19062269  .00000869  00000+0  49559-3 0  9992
2 61553  88.9820  78.3278 0005364   6.1920 353.9329 14.08843209 69411
QIANFAN-21              
1 61554U 24185C   25346.18788779  .00000994  00000+0  43831-3 0  9999
2 61554  88.9737  77.0444 0010669  16.9641 343.1905 14.22606844 69894
QIANFAN-22              
1 61555U 24185D   25346.14016101  .00000282  00000+0  23278-3 0  9992
2 61555  88.9805  79.3121 0006410  15.9901 344.1471 13.86302633 68857
QIANFAN-23              
1 61556U 24185E   25346.13652014  .00000726  00000+0  35935-3 0  9997
2 61556  88.9814  77.8206 0006230 331.1256  28.9586 14.16291741 69666
QIANFAN-24              
1 61557U 24185F   25346.12074355  .00001027  00000+0  44300-3 0  9994
2 61557  88.9795  77.2284 0007524 306.6596  53.3904 14.23809457 69939
